[{"OBJECT_NAME":"HERMES-2","OBJECT_ID":"2025-052AK","EPOCH":"2026-03-09T22:17:00.130272","MEAN_MOTION":15.28021069,"ECCENTRICITY":0.00063399,"INCLINATION":97.4004,"RA_OF_ASC_NODE":324.4926,"ARG_OF_PERICENTER":99.416,"MEAN_ANOMALY":260.7796,"EPHEMERIS_TYPE":0,"CLASSIFICATION_TYPE":"U","NORAD_CAT_ID":63243,"ELEMENT_SET_NO":999,"REV_AT_EPOCH":5485,"BSTAR":0.00034839454,"MEAN_MOTION_DOT":9.456e-5,"MEAN_MOTION_DDOT":0},{"OBJECT_NAME":"STARLINK-36553","OBJECT_ID":"2026-012P","EPOCH":"2026-03-09T02:03:26.552736","MEAN_MOTION":15.27569407,"ECCENTRICITY":0.00018577,"INCLINATION":43.0032,"RA_OF_ASC_NODE":317.4469,"ARG_OF_PERICENTER":254.6779,"MEAN_ANOMALY":105.3867,"EPHEMERIS_TYPE":0,"CLASSIFICATION_TYPE":"U","NORAD_CAT_ID":67506,"ELEMENT_SET_NO":999,"REV_AT_EPOCH":767,"BSTAR":0.0013010866,"MEAN_MOTION_DOT":0.00035703,"MEAN_MOTION_DDOT":0}]
